{
"type": "FeatureCollection",
"name": "dop_cur_dop_zachparkoviste_b_dop_cur_dop_zachparkovi",
"crs": { "type": "name", "properties": { "name": "urn:ogc:def:crs:OGC:1.3:CRS84" } },
"features": [
{ "type": "Feature", "properties": { "objectid": 1, "typ": 1, "stav": 1, "nazev": "Běchovice", "kapacita": 92, "kapacita_vyhled": 300, "id_poskyt": 43, "globalid": "{57EEF6EF-C311-454C-8B7F-8A01D413D1BE}" }, "geometry": { "type": "Point", "coordinates": [ 14.596779481000056, 50.080758754000044 ] } },
{ "type": "Feature", "properties": { "objectid": 2, "typ": 1, "stav": 1, "nazev": "Černý Most II", "kapacita": 131, "kapacita_vyhled": null, "id_poskyt": 43, "globalid": "{1F7E3224-3211-4E87-93AC-3316853A8E81}" }, "geometry": { "type": "Point", "coordinates": [ 14.581984179000074, 50.110403147000056 ] } },
{ "type": "Feature", "properties": { "objectid": 3, "typ": 2, "stav": 1, "nazev": "Letňany", "kapacita": 633, "kapacita_vyhled": null, "id_poskyt": 43, "globalid": "{10D388E9-A065-406F-86E9-42FD474CF546}" }, "geometry": { "type": "Point", "coordinates": [ 14.51450447700006, 50.125548545000072 ] } },
{ "type": "Feature", "properties": { "objectid": 4, "typ": 1, "stav": 1, "nazev": "Skalka I", "kapacita": 110, "kapacita_vyhled": null, "id_poskyt": 43, "globalid": "{4982E281-EB90-462D-ABBA-EE0A3BFD8D44}" }, "geometry": { "type": "Point", "coordinates": [ 14.507761120000055, 50.069491711000069 ] } },
{ "type": "Feature", "properties": { "objectid": 5, "typ": 3, "stav": 1, "nazev": "Chodov", "kapacita": 653, "kapacita_vyhled": null, "id_poskyt": 43, "globalid": "{0878C5D5-A0DB-4FB0-B4DF-B8E3C3FEB8F5}" }, "geometry": { "type": "Point", "coordinates": [ 14.491741195000031, 50.032110436000039 ] } },
{ "type": "Feature", "properties": { "objectid": 6, "typ": 1, "stav": 1, "nazev": "Skalka II", "kapacita": 74, "kapacita_vyhled": null, "id_poskyt": 43, "globalid": "{A2B697E0-5F95-4586-93EA-AE4D869B31BD}" }, "geometry": { "type": "Point", "coordinates": [ 14.511573289000069, 50.070357794000074 ] } },
{ "type": "Feature", "properties": { "objectid": 7, "typ": 2, "stav": 1, "nazev": "Parkoviště P + R - Černý Most I", "kapacita": 880, "kapacita_vyhled": null, "id_poskyt": 43, "globalid": "{4B9B8297-E30E-4031-A333-9839B7053720}" }, "geometry": { "type": "Point", "coordinates": [ 14.579219676000037, 50.110035269000036 ] } },
{ "type": "Feature", "properties": { "objectid": 8, "typ": 2, "stav": 5, "nazev": "Parkoviště P + R - Radotín", "kapacita": 33, "kapacita_vyhled": 240, "id_poskyt": 43, "globalid": "{40784AC1-6BAF-45D0-905B-A0867AB44E23}" }, "geometry": { "type": "Point", "coordinates": [ 14.363689840000063, 49.986573319000058 ] } },
{ "type": "Feature", "properties": { "objectid": 9, "typ": 1, "stav": 1, "nazev": "Parkoviště P + R - Běchovice - střed", "kapacita": 60, "kapacita_vyhled": null, "id_poskyt": 43, "globalid": "{094476FA-3723-452D-AACB-767A088FBC97}" }, "geometry": { "type": "Point", "coordinates": [ 14.61714932600006, 50.084139531000062 ] } },
{ "type": "Feature", "properties": { "objectid": 10, "typ": 1, "stav": 4, "nazev": "Kotlářka ", "kapacita": 184, "kapacita_vyhled": null, "id_poskyt": 43, "globalid": "{4295863E-39BE-47C2-9F11-DBD8151E594C}" }, "geometry": { "type": "Point", "coordinates": [ 14.357212286000049, 50.068447843000058 ] } },
{ "type": "Feature", "properties": { "objectid": 11, "typ": 1, "stav": 4, "nazev": "Písnice", "kapacita": 95, "kapacita_vyhled": null, "id_poskyt": 43, "globalid": "{9AD158D4-902E-449E-8E57-5D71F8377355}" }, "geometry": { "type": "Point", "coordinates": [ 14.466031197000063, 50.00288835200007 ] } },
{ "type": "Feature", "properties": { "objectid": 12, "typ": 1, "stav": 1, "nazev": "Rajská Zahrada", "kapacita": 88, "kapacita_vyhled": null, "id_poskyt": 43, "globalid": "{EB49494C-5831-4950-8A53-9C3E9342078B}" }, "geometry": { "type": "Point", "coordinates": [ 14.562727059000053, 50.106999079000047 ] } },
{ "type": "Feature", "properties": { "objectid": 13, "typ": 5, "stav": 1, "nazev": "Nádraží Kyje", "kapacita": 60, "kapacita_vyhled": 60, "id_poskyt": 43, "globalid": "{2CDFA085-462F-4F6D-A055-218388B4633F}" }, "geometry": { "type": "Point", "coordinates": [ 14.543745218000026, 50.097132521000049 ] } },
{ "type": "Feature", "properties": { "objectid": 14, "typ": 5, "stav": 1, "nazev": "Nádraží Braník", "kapacita": 115, "kapacita_vyhled": null, "id_poskyt": 43, "globalid": "{846C4A41-4860-4E2A-B45E-EA35F520A494}" }, "geometry": { "type": "Point", "coordinates": [ 14.406237880000049, 50.028622208000058 ] } },
{ "type": "Feature", "properties": { "objectid": 15, "typ": 2, "stav": 5, "nazev": "Depo Hostivař", "kapacita": 169, "kapacita_vyhled": 690, "id_poskyt": 43, "globalid": "{8C4985A9-24B2-4585-903C-2F04E6BED61F}" }, "geometry": { "type": "Point", "coordinates": [ 14.517880722000029, 50.076538035000056 ] } },
{ "type": "Feature", "properties": { "objectid": 16, "typ": 1, "stav": 4, "nazev": "Nádraží Holešovice", "kapacita": 74, "kapacita_vyhled": null, "id_poskyt": 43, "globalid": "{A5BBE701-DAD3-457D-877D-4F228183FCF3}" }, "geometry": { "type": "Point", "coordinates": [ 14.441242044000035, 50.108742244000041 ] } },
{ "type": "Feature", "properties": { "objectid": 17, "typ": 3, "stav": 4, "nazev": "Kongresové Centrum Praha", "kapacita": 260, "kapacita_vyhled": null, "id_poskyt": 43, "globalid": "{C08C6D23-CBFC-4309-9DF2-B4C03EE89F30}" }, "geometry": { "type": "Point", "coordinates": [ 14.427946506000069, 50.061484516000064 ] } },
{ "type": "Feature", "properties": { "objectid": 18, "typ": 1, "stav": 1, "nazev": "Lipence", "kapacita": 45, "kapacita_vyhled": 45, "id_poskyt": 43, "globalid": "{67F07D46-CBB8-47AC-8CA4-3EF48A5B9E07}" }, "geometry": { "type": "Point", "coordinates": [ 14.326755210000044, 49.959336519000033 ] } },
{ "type": "Feature", "properties": { "objectid": 19, "typ": 5, "stav": 1, "nazev": "Nádarží Horní Měcholupy", "kapacita": 35, "kapacita_vyhled": 35, "id_poskyt": 43, "globalid": "{200FDE82-DA1B-4CE0-B736-7329CF8E3CDC}" }, "geometry": { "type": "Point", "coordinates": [ 14.565498545000025, 50.048310731000072 ] } },
{ "type": "Feature", "properties": { "objectid": 20, "typ": 5, "stav": 1, "nazev": "Nádraží Hostivař", "kapacita": 87, "kapacita_vyhled": 87, "id_poskyt": 43, "globalid": "{0B371A9F-2911-4CD4-8D66-CA9BF7BC55F8}" }, "geometry": { "type": "Point", "coordinates": [ 14.539630009000064, 50.055267812000068 ] } },
{ "type": "Feature", "properties": { "objectid": 21, "typ": 1, "stav": 1, "nazev": "Nádraží Uhříněves", "kapacita": 56, "kapacita_vyhled": 56, "id_poskyt": 43, "globalid": "{DCA86F9D-81CF-4A21-906D-5A4BC674BCE2}" }, "geometry": { "type": "Point", "coordinates": [ 14.591568435000056, 50.03312896400007 ] } },
{ "type": "Feature", "properties": { "objectid": 22, "typ": 1, "stav": 4, "nazev": "Nové Butovice", "kapacita": 57, "kapacita_vyhled": null, "id_poskyt": 43, "globalid": "{6746B34C-1DE3-4C28-B033-281928F12CFF}" }, "geometry": { "type": "Point", "coordinates": [ 14.350608366000074, 50.050462099000072 ] } },
{ "type": "Feature", "properties": { "objectid": 23, "typ": 1, "stav": 4, "nazev": "Opatov", "kapacita": 216, "kapacita_vyhled": null, "id_poskyt": 43, "globalid": "{C80B24A3-43FD-4DB6-AB89-271D79AB01E3}" }, "geometry": { "type": "Point", "coordinates": [ 14.509247110000047, 50.026587176000078 ] } },
{ "type": "Feature", "properties": { "objectid": 24, "typ": 1, "stav": 4, "nazev": "Troja-Zoo", "kapacita": 269, "kapacita_vyhled": null, "id_poskyt": 43, "globalid": "{7233A901-1ACB-460C-ABA1-C732D5D81959}" }, "geometry": { "type": "Point", "coordinates": [ 14.436450458000024, 50.115392737000036 ] } },
{ "type": "Feature", "properties": { "objectid": 25, "typ": 1, "stav": 1, "nazev": "Zahradní Město", "kapacita": 121, "kapacita_vyhled": null, "id_poskyt": 43, "globalid": "{8DDEF670-6EAC-4F49-93F7-2CC0210F6B0C}" }, "geometry": { "type": "Point", "coordinates": [ 14.506851101000052, 50.061198469000033 ] } },
{ "type": "Feature", "properties": { "objectid": 26, "typ": 1, "stav": 4, "nazev": "Zličín I", "kapacita": 82, "kapacita_vyhled": null, "id_poskyt": 43, "globalid": "{F96A32EC-37D1-4344-BE97-B6E48865AD53}" }, "geometry": { "type": "Point", "coordinates": [ 14.289768907000052, 50.054600898000047 ] } },
{ "type": "Feature", "properties": { "objectid": 27, "typ": 1, "stav": 4, "nazev": "Zličín II", "kapacita": 60, "kapacita_vyhled": null, "id_poskyt": 43, "globalid": "{D5B454EE-7C70-42B4-B186-3BA5F1234BD7}" }, "geometry": { "type": "Point", "coordinates": [ 14.291230273000053, 50.053139032000047 ] } },
{ "type": "Feature", "properties": { "objectid": 28, "typ": 2, "stav": 4, "nazev": "Ládví", "kapacita": 78, "kapacita_vyhled": 200, "id_poskyt": 43, "globalid": "{075F4417-3DE3-41E3-A113-01A891D6DD30}" }, "geometry": { "type": "Point", "coordinates": [ 14.47194607800003, 50.126123886000073 ] } }
]
}
