{"type": "FeatureCollection", "features": [{"type": "Feature", "geometry": {"type": "Point", "coordinates": [14.45876, 50.06821]}, "properties": {"station_id": "27581946", "name": "P10-\u010cechovo n\u00e1m\u011bst\u00ed", "short_name": "46007", "capacity": 10, "region_id": "661", "is_virtual_station": false}}, {"type": "Feature", "geometry": {"type": "Point", "coordinates": [14.45526, 50.06916]}, "properties": {"station_id": "27581959", "name": "P10-Moskevsk\u00e1 2 - AIRBANK", "short_name": "46009", "capacity": 10, "region_id": "661", "is_virtual_station": false}}, {"type": "Feature", "geometry": {"type": "Point", "coordinates": [14.45338, 50.0691]}, "properties": {"station_id": "27582060", "name": "P10-Vr\u0161ovick\u00e9 n\u00e1m\u011bst\u00ed - REST. WAIKIKI", "short_name": "46010", "capacity": 10, "region_id": "661", "is_virtual_station": false}}, {"type": "Feature", "geometry": {"type": "Point", "coordinates": [14.4567, 50.07118]}, "properties": {"station_id": "27582078", "name": "P10-Tesco Finsk\u00e1", "short_name": "46012", "capacity": 10, "region_id": "661", "is_virtual_station": false}}, {"type": "Feature", "geometry": {"type": "Point", "coordinates": [14.468, 50.06946]}, "properties": {"station_id": "27582094", "name": "P10-Ministerstvo \u017eivotn\u00edho prost\u0159ed\u00ed", "short_name": "46015", "capacity": 10, "region_id": "661", "is_virtual_station": false}}, {"type": "Feature", "geometry": {"type": "Point", "coordinates": [14.47075, 50.07264]}, "properties": {"station_id": "27582098", "name": "P10-Tesco B\u011blocerkevsk\u00e1", "short_name": "46016", "capacity": 10, "region_id": "661", "is_virtual_station": false}}, {"type": "Feature", "geometry": {"type": "Point", "coordinates": [14.41556, 50.08936]}, "properties": {"station_id": "27582114", "name": "P1-Rudolfinum", "short_name": "46018", "capacity": 6, "region_id": "661", "is_virtual_station": false}}, {"type": "Feature", "geometry": {"type": "Point", "coordinates": [14.42088, 50.08802]}, "properties": {"station_id": "27582120", "name": "P1-Starom\u011bstsk\u00e9 n\u00e1m\u011bst\u00ed", "short_name": "46019", "capacity": 10, "region_id": "661", "is_virtual_station": false}}, {"type": "Feature", "geometry": {"type": "Point", "coordinates": [14.42525, 50.09227]}, "properties": {"station_id": "27582367", "name": "P1-\u0158\u00e1snovka 8", "short_name": "46021", "capacity": 10, "region_id": "661", "is_virtual_station": false}}, {"type": "Feature", "geometry": {"type": "Point", "coordinates": [14.40854, 50.0853]}, "properties": {"station_id": "27582379", "name": "P1-Na Kamp\u011b", "short_name": "46022", "capacity": 6, "region_id": "661", "is_virtual_station": false}}, {"type": "Feature", "geometry": {"type": "Point", "coordinates": [14.39637, 50.08689]}, "properties": {"station_id": "27582394", "name": "P1-Nemocnice pod Pet\u0159\u00ednem", "short_name": "46024", "capacity": 4, "region_id": "661", "is_virtual_station": false}}, {"type": "Feature", "geometry": {"type": "Point", "coordinates": [14.45156, 50.08712]}, "properties": {"station_id": "27582405", "name": "P3-Husitsk\u00e1 - Prokopova", "short_name": "46025", "capacity": 10, "region_id": "661", "is_virtual_station": false}}, {"type": "Feature", "geometry": {"type": "Point", "coordinates": [14.45276, 50.08651]}, "properties": {"station_id": "27582427", "name": "P3-Prokopovo n\u00e1m\u011bst\u00ed", "short_name": "46026", "capacity": 10, "region_id": "661", "is_virtual_station": false}}, {"type": "Feature", "geometry": {"type": "Point", "coordinates": [14.465362, 50.083658]}, "properties": {"station_id": "27582437", "name": "P3-Ol\u0161ansk\u00e1 55/5", "short_name": "46027", "capacity": 10, "region_id": "661", "is_virtual_station": false}}, {"type": "Feature", "geometry": {"type": "Point", "coordinates": [14.462594, 50.096681]}, "properties": {"station_id": "27582455", "name": "P8-Sokolovsk\u00e1", "short_name": "46028", "capacity": 10, "region_id": "661", "is_virtual_station": false}}, {"type": "Feature", "geometry": {"type": "Point", "coordinates": [14.46599, 50.0987]}, "properties": {"station_id": "27582468", "name": "P8-Rohansk\u00e9 N\u00e1b\u0159e\u017e\u00ed", "short_name": "46029", "capacity": 10, "region_id": "661", "is_virtual_station": false}}, {"type": "Feature", "geometry": {"type": "Point", "coordinates": [14.46679, 50.09976]}, "properties": {"station_id": "27582482", "name": "P8-U Rustonky", "short_name": "46030", "capacity": 10, "region_id": "661", "is_virtual_station": false}}, {"type": "Feature", "geometry": {"type": "Point", "coordinates": [14.45404, 50.0956]}, "properties": {"station_id": "27582487", "name": "P8-Rohansk\u00e9 n\u00e1b\u0159e\u017e\u00ed - \u0160aldova", "short_name": "46031", "capacity": 10, "region_id": "661", "is_virtual_station": false}}, {"type": "Feature", "geometry": {"type": "Point", "coordinates": [14.457842, 50.093068]}, "properties": {"station_id": "27582498", "name": "P8-Z\u0160 Ly\u010dkovo n\u00e1m\u011bst\u00ed/Sovova", "short_name": "46032", "capacity": 10, "region_id": "661", "is_virtual_station": false}}, {"type": "Feature", "geometry": {"type": "Point", "coordinates": [14.41457, 50.04852]}, "properties": {"station_id": "27582597", "name": "P4-\u017dlut\u00e9 l\u00e1zn\u011b", "short_name": "46045", "capacity": 4, "region_id": "661", "is_virtual_station": false}}, {"type": "Feature", "geometry": {"type": "Point", "coordinates": [14.46394, 50.0958]}, "properties": {"station_id": "27582614", "name": "P8-Futurama Business Park 1", "short_name": "46047", "capacity": 10, "region_id": "661", "is_virtual_station": false}}, {"type": "Feature", "geometry": {"type": "Point", "coordinates": [14.36927, 50.05223]}, "properties": {"station_id": "27582671", "name": "P5-U Tyr\u0161ovy \u0161koly", "short_name": "46054", "capacity": 10, "region_id": "661", "is_virtual_station": false}}, {"type": "Feature", "geometry": {"type": "Point", "coordinates": [14.35138, 50.05231]}, "properties": {"station_id": "27582698", "name": "P13-Bucharova - Aspira", "short_name": "46057", "capacity": 10, "region_id": "661", "is_virtual_station": false}}, {"type": "Feature", "geometry": {"type": "Point", "coordinates": [14.36446, 50.05494]}, "properties": {"station_id": "27582709", "name": "P5-Pod Vidoul\u00ed - u zast\u00e1vky", "short_name": "46058", "capacity": 10, "region_id": "661", "is_virtual_station": false}}, {"type": "Feature", "geometry": {"type": "Point", "coordinates": [14.404289, 50.088425]}, "properties": {"station_id": "27582721", "name": "P1-Malostransk\u00e9 n\u00e1m\u011bst\u00ed", "short_name": "46059", "capacity": 10, "region_id": "661", "is_virtual_station": false}}, {"type": "Feature", "geometry": {"type": "Point", "coordinates": [14.37539, 50.05594]}, "properties": {"station_id": "27582734", "name": "P5-U Trezorky bus", "short_name": "46060", "capacity": 10, "region_id": "661", "is_virtual_station": false}}, {"type": "Feature", "geometry": {"type": "Point", "coordinates": [14.34436, 50.0508]}, "properties": {"station_id": "27582797", "name": "P13- \u00da\u0159ad m\u011bstsk\u00e9 \u010d\u00e1sti praha 13", "short_name": "46063", "capacity": 10, "region_id": "661", "is_virtual_station": false}}, {"type": "Feature", "geometry": {"type": "Point", "coordinates": [14.37553, 50.08511]}, "properties": {"station_id": "27582809", "name": "P6-POD MARJ\u00c1NKOU", "short_name": "46066", "capacity": 10, "region_id": "661", "is_virtual_station": false}}, {"type": "Feature", "geometry": {"type": "Point", "coordinates": [14.36605, 50.08468]}, "properties": {"station_id": "27582821", "name": "P6-Pod Marj\u00e1nkou - Zubn\u00ed chirurgie", "short_name": "46067", "capacity": 10, "region_id": "661", "is_virtual_station": false}}, {"type": "Feature", "geometry": {"type": "Point", "coordinates": [14.37362, 50.09119]}, "properties": {"station_id": "27582836", "name": "P6-N\u00c1M\u011aST\u00cd P\u0158ED BATERIEMI", "short_name": "46069", "capacity": 10, "region_id": "661", "is_virtual_station": false}}, {"type": "Feature", "geometry": {"type": "Point", "coordinates": [14.34907, 50.08749]}, "properties": {"station_id": "27582868", "name": "P6-ANKARSK\u00c1 - Z\u0160 V\u011aRY \u010cASLAVSK\u00c9", "short_name": "46073", "capacity": 10, "region_id": "661", "is_virtual_station": false}}, {"type": "Feature", "geometry": {"type": "Point", "coordinates": [14.3595, 50.09762]}, "properties": {"station_id": "27582883", "name": "P6-Evropsk\u00e1 BILLA", "short_name": "46075", "capacity": 10, "region_id": "661", "is_virtual_station": false}}, {"type": "Feature", "geometry": {"type": "Point", "coordinates": [14.36266, 50.09974]}, "properties": {"station_id": "27582891", "name": "P6-Tobruck\u00e1 - Mate\u0159sk\u00e1 \u0161kola", "short_name": "46076", "capacity": 10, "region_id": "661", "is_virtual_station": false}}, {"type": "Feature", "geometry": {"type": "Point", "coordinates": [14.404181, 50.003791]}, "properties": {"station_id": "27582908", "name": "P12-Kino Mod\u0159any", "short_name": "46078", "capacity": 10, "region_id": "661", "is_virtual_station": false}}, {"type": "Feature", "geometry": {"type": "Point", "coordinates": [14.30441, 50.04755]}, "properties": {"station_id": "27582917", "name": "P13-Laurinova", "short_name": "46080", "capacity": 10, "region_id": "661", "is_virtual_station": false}}, {"type": "Feature", "geometry": {"type": "Point", "coordinates": [14.31665, 50.04893]}, "properties": {"station_id": "27582946", "name": "P13-Kov\u00e1\u0159ova - Mlejn-knihovna", "short_name": "46085", "capacity": 10, "region_id": "661", "is_virtual_station": false}}, {"type": "Feature", "geometry": {"type": "Point", "coordinates": [14.32978, 50.04774]}, "properties": {"station_id": "27582954", "name": "P13-Severn\u00ed alej - Ku\u017eelk\u00e1rna", "short_name": "46086", "capacity": 10, "region_id": "661", "is_virtual_station": false}}, {"type": "Feature", "geometry": {"type": "Point", "coordinates": [14.43194, 50.0792]}, "properties": {"station_id": "27583041", "name": "P1-Metro Muzeum 2 (v\u00fdstup E8)", "short_name": "46098", "capacity": 10, "region_id": "661", "is_virtual_station": false}}, {"type": "Feature", "geometry": {"type": "Point", "coordinates": [14.45162, 50.09414]}, "properties": {"station_id": "27583076", "name": "P8-K\u0159i\u017e\u00edkova", "short_name": "46102", "capacity": 10, "region_id": "661", "is_virtual_station": false}}, {"type": "Feature", "geometry": {"type": "Point", "coordinates": [14.42441, 50.09697]}, "properties": {"station_id": "27583085", "name": "P7-Kosteln\u00ed - Technick\u00e9 Muzeum", "short_name": "46103", "capacity": 10, "region_id": "661", "is_virtual_station": false}}, {"type": "Feature", "geometry": {"type": "Point", "coordinates": [14.39016, 50.10359]}, "properties": {"station_id": "27583096", "name": "P6-N\u00e1rodn\u00ed technick\u00e1 knihovna", "short_name": "46104", "capacity": 15, "region_id": "661", "is_virtual_station": false}}, {"type": "Feature", "geometry": {"type": "Point", "coordinates": [14.422254, 50.09749]}, "properties": {"station_id": "27583104", "name": "P7-Gymn\u00e1zium Nad \u0160tolou", "short_name": "46105", "capacity": 10, "region_id": "661", "is_virtual_station": false}}, {"type": "Feature", "geometry": {"type": "Point", "coordinates": [14.40663, 50.02865]}, "properties": {"station_id": "27583110", "name": "P4-N\u00e1dra\u017e\u00ed Bran\u00edk", "short_name": "46106", "capacity": 10, "region_id": "661", "is_virtual_station": false}}, {"type": "Feature", "geometry": {"type": "Point", "coordinates": [14.404107, 50.072139]}, "properties": {"station_id": "27583121", "name": "P5- And\u011bl - n\u00e1ro\u017e\u00ed \u0160tef\u00e1nikova x Lidick\u00e1", "short_name": "46107", "capacity": 10, "region_id": "661", "is_virtual_station": false}}, {"type": "Feature", "geometry": {"type": "Point", "coordinates": [14.42867, 50.06705]}, "properties": {"station_id": "27583131", "name": "P2-Folimanka OSV\u011a\u017dOVNA", "short_name": "46109", "capacity": 10, "region_id": "661", "is_virtual_station": false}}, {"type": "Feature", "geometry": {"type": "Point", "coordinates": [14.40956, 50.11019]}, "properties": {"station_id": "27583152", "name": "P7-Za c\u00edsa\u0159sk\u00fdm ml\u00fdnem - TK Sparta", "short_name": "46112", "capacity": 10, "region_id": "661", "is_virtual_station": false}}, {"type": "Feature", "geometry": {"type": "Point", "coordinates": [14.432739, 50.088627]}, "properties": {"station_id": "27583160", "name": "P1-Masarykovo vlakov\u00e9 n\u00e1dra\u017e\u00ed", "short_name": "46113", "capacity": 10, "region_id": "661", "is_virtual_station": false}}, {"type": "Feature", "geometry": {"type": "Point", "coordinates": [14.53029, 50.15124]}, "properties": {"station_id": "27583201", "name": "P18-Cukrovarsk\u00e1 - Tesco Expres", "short_name": "46116", "capacity": 10, "region_id": "661", "is_virtual_station": false}}, {"type": "Feature", "geometry": {"type": "Point", "coordinates": [14.454306, 50.063152]}, "properties": {"station_id": "27583292", "name": "P10-Finan\u010dn\u00edho \u00fa\u0159adu pro Prahu 10", "short_name": "46123", "capacity": 10, "region_id": "661", "is_virtual_station": false}}, {"type": "Feature", "geometry": {"type": "Point", "coordinates": [14.50323, 50.13517]}, "properties": {"station_id": "27583301", "name": "P18-OC Let\u0148any", "short_name": "46124", "capacity": 10, "region_id": "661", "is_virtual_station": false}}, {"type": "Feature", "geometry": {"type": "Point", "coordinates": [14.5071, 50.13508]}, "properties": {"station_id": "27583314", "name": "P18-R\u00fdma\u0159ovsk\u00e1 - Penny Market", "short_name": "46125", "capacity": 10, "region_id": "661", "is_virtual_station": false}}, {"type": "Feature", "geometry": {"type": "Point", "coordinates": [14.44539, 50.08716]}, "properties": {"station_id": "27583416", "name": "P3-Cyklotrasa Husitsk\u00e1", "short_name": "46134", "capacity": 10, "region_id": "661", "is_virtual_station": false}}, {"type": "Feature", "geometry": {"type": "Point", "coordinates": [14.4063, 50.07491]}, "properties": {"station_id": "27583430", "name": "P5-PRESLOVA - Krajsk\u00fd \u00fa\u0159ad", "short_name": "46136", "capacity": 10, "region_id": "661", "is_virtual_station": false}}, {"type": "Feature", "geometry": {"type": "Point", "coordinates": [14.50678, 50.12215]}, "properties": {"station_id": "27583448", "name": "P9-Proseck\u00e1 - Penny", "short_name": "46139", "capacity": 10, "region_id": "661", "is_virtual_station": false}}, {"type": "Feature", "geometry": {"type": "Point", "coordinates": [14.48398, 50.12859]}, "properties": {"station_id": "27583459", "name": "P8-B\u0159ezensk\u00e1 3", "short_name": "46141", "capacity": 10, "region_id": "661", "is_virtual_station": false}}, {"type": "Feature", "geometry": {"type": "Point", "coordinates": [14.49426, 50.11817]}, "properties": {"station_id": "27583467", "name": "P9-U Proseck\u00e9ho Kostela", "short_name": "46142", "capacity": 10, "region_id": "661", "is_virtual_station": false}}, {"type": "Feature", "geometry": {"type": "Point", "coordinates": [14.47001, 50.12798]}, "properties": {"station_id": "27583492", "name": "P8-Kooperativa", "short_name": "46145", "capacity": 10, "region_id": "661", "is_virtual_station": false}}, {"type": "Feature", "geometry": {"type": "Point", "coordinates": [14.4757, 50.13117]}, "properties": {"station_id": "27583509", "name": "P8-Soukrom\u00e1 st\u0159edn\u00ed a z\u00e1kladn\u00ed \u0161kola Chaba\u0159ovick\u00e1", "short_name": "46147", "capacity": 10, "region_id": "661", "is_virtual_station": false}}, {"type": "Feature", "geometry": {"type": "Point", "coordinates": [14.4676, 50.13046]}, "properties": {"station_id": "27583512", "name": "P8-Bure\u0161ova", "short_name": "46148", "capacity": 10, "region_id": "661", "is_virtual_station": false}}, {"type": "Feature", "geometry": {"type": "Point", "coordinates": [14.46427, 50.12362]}, "properties": {"station_id": "27583526", "name": "P8-Za Slovankou - \u00dastav Fyziky", "short_name": "46149", "capacity": 10, "region_id": "661", "is_virtual_station": false}}, {"type": "Feature", "geometry": {"type": "Point", "coordinates": [14.4429, 50.05472]}, "properties": {"station_id": "27583556", "name": "P4-Sdru\u017een\u00ed", "short_name": "46152", "capacity": 10, "region_id": "661", "is_virtual_station": false}}, {"type": "Feature", "geometry": {"type": "Point", "coordinates": [14.4636, 50.09644]}, "properties": {"station_id": "27583581", "name": "P8-Futurama Business Park 2", "short_name": "46155", "capacity": 10, "region_id": "661", "is_virtual_station": false}}, {"type": "Feature", "geometry": {"type": "Point", "coordinates": [14.44569, 50.08122]}, "properties": {"station_id": "27583588", "name": "P3-Slav\u00edkova - Kubel\u00edkova", "short_name": "46156", "capacity": 10, "region_id": "661", "is_virtual_station": false}}, {"type": "Feature", "geometry": {"type": "Point", "coordinates": [14.450015, 50.084233]}, "properties": {"station_id": "27583609", "name": "P3-Sladkovsk\u00e9ho n\u00e1m\u011bst\u00ed", "short_name": "46159", "capacity": 10, "region_id": "661", "is_virtual_station": false}}, {"type": "Feature", "geometry": {"type": "Point", "coordinates": [14.44887, 50.11474]}, "properties": {"station_id": "27583656", "name": "P8-Matematicko - fyzik\u00e1ln\u00ed fakulta Univerzity Karlovy", "short_name": "46165", "capacity": 10, "region_id": "661", "is_virtual_station": false}}, {"type": "Feature", "geometry": {"type": "Point", "coordinates": [14.398647, 50.01326]}, "properties": {"station_id": "27583775", "name": "P12-Freestyle park Mod\u0159any", "short_name": "46170", "capacity": 10, "region_id": "661", "is_virtual_station": false}}, {"type": "Feature", "geometry": {"type": "Point", "coordinates": [14.421322, 50.092863]}, "properties": {"station_id": "27583780", "name": "P1-Nemocnice na Franti\u0161ku", "short_name": "46171", "capacity": 10, "region_id": "661", "is_virtual_station": false}}, {"type": "Feature", "geometry": {"type": "Point", "coordinates": [14.46202, 50.08785]}, "properties": {"station_id": "27583797", "name": "P3-\u017derot\u00ednova", "short_name": "46173", "capacity": 10, "region_id": "661", "is_virtual_station": false}}, {"type": "Feature", "geometry": {"type": "Point", "coordinates": [14.41477, 50.08504]}, "properties": {"station_id": "27583814", "name": "P1-Anensk\u00e9 n\u00e1m\u011bst\u00ed", "short_name": "46174", "capacity": 10, "region_id": "661", "is_virtual_station": false}}, {"type": "Feature", "geometry": {"type": "Point", "coordinates": [14.39565, 50.13712]}, "properties": {"station_id": "27604068", "name": "P8-V Z\u00e1mc\u00edch", "short_name": "46181", "capacity": 10, "region_id": "661", "is_virtual_station": false}}, {"type": "Feature", "geometry": {"type": "Point", "coordinates": [14.42464, 50.08656]}, "properties": {"station_id": "27604181", "name": "P1-Ovocn\u00fd trh", "short_name": "46196", "capacity": 10, "region_id": "661", "is_virtual_station": false}}, {"type": "Feature", "geometry": {"type": "Point", "coordinates": [14.40131, 50.06984]}, "properties": {"station_id": "27604194", "name": "P5-KARLA ENGLI\u0160E - O\u010cKO TV", "short_name": "46198", "capacity": 10, "region_id": "661", "is_virtual_station": false}}, {"type": "Feature", "geometry": {"type": "Point", "coordinates": [14.4591, 50.0757]}, "properties": {"station_id": "27604216", "name": "P3-Boleslavsk\u00e1 - Korunn\u00ed (ORIONKA)", "short_name": "46200", "capacity": 10, "region_id": "661", "is_virtual_station": false}}, {"type": "Feature", "geometry": {"type": "Point", "coordinates": [14.44008, 50.0831]}, "properties": {"station_id": "27604228", "name": "P3-V\u0160E - Italsk\u00e1", "short_name": "46202", "capacity": 10, "region_id": "661", "is_virtual_station": false}}, {"type": "Feature", "geometry": {"type": "Point", "coordinates": [14.416713, 50.051642]}, "properties": {"station_id": "27604264", "name": "P4- Podolsk\u00e9 n\u00e1b\u0159e\u017e\u00ed", "short_name": "46207", "capacity": 12, "region_id": "661", "is_virtual_station": false}}, {"type": "Feature", "geometry": {"type": "Point", "coordinates": [14.470673, 50.107014]}, "properties": {"station_id": "27604270", "name": "P8-Elsnicovo n\u00e1m\u011bst\u00ed", "short_name": "46208", "capacity": 10, "region_id": "661", "is_virtual_station": false}}, {"type": "Feature", "geometry": {"type": "Point", "coordinates": [14.41402, 50.04665]}, "properties": {"station_id": "27604277", "name": "P4-Dvoreck\u00e9 n\u00e1m\u011bst\u00ed", "short_name": "46209", "capacity": 8, "region_id": "661", "is_virtual_station": false}}, {"type": "Feature", "geometry": {"type": "Point", "coordinates": [14.44929, 50.0451]}, "properties": {"station_id": "27604323", "name": "P4-Bud\u011bjovick\u00e1", "short_name": "46211", "capacity": 10, "region_id": "661", "is_virtual_station": false}}, {"type": "Feature", "geometry": {"type": "Point", "coordinates": [14.46181, 50.07569]}, "properties": {"station_id": "27604328", "name": "P3-Korunn\u00ed", "short_name": "46212", "capacity": 10, "region_id": "661", "is_virtual_station": false}}, {"type": "Feature", "geometry": {"type": "Point", "coordinates": [14.439313, 50.050567]}, "properties": {"station_id": "27604342", "name": "P4-Ark\u00e1dy Pankr\u00e1c Metro", "short_name": "46214", "capacity": 8, "region_id": "661", "is_virtual_station": false}}, {"type": "Feature", "geometry": {"type": "Point", "coordinates": [14.45438, 50.07552]}, "properties": {"station_id": "27604351", "name": "P3-Korunn\u00ed - Perunova", "short_name": "46215", "capacity": 10, "region_id": "661", "is_virtual_station": false}}, {"type": "Feature", "geometry": {"type": "Point", "coordinates": [14.423992, 50.083961]}, "properties": {"station_id": "27604367", "name": "P1- V\u00e1clavsk\u00e9 n\u00e1m\u011bst\u00ed spodn\u00ed \u010d\u00e1st 1 (v\u00fdstup E5)", "short_name": "46217", "capacity": 10, "region_id": "661", "is_virtual_station": false}}, {"type": "Feature", "geometry": {"type": "Point", "coordinates": [14.472921, 50.113141]}, "properties": {"station_id": "27604448", "name": "P8-Pod Kor\u00e1bem", "short_name": "46224", "capacity": 4, "region_id": "661", "is_virtual_station": false}}, {"type": "Feature", "geometry": {"type": "Point", "coordinates": [14.44905, 50.07748]}, "properties": {"station_id": "27604450", "name": "P3-Slav\u00edkova (v\u00fdstup metra J. z Pod\u011bbrad)", "short_name": "46225", "capacity": 10, "region_id": "661", "is_virtual_station": false}}, {"type": "Feature", "geometry": {"type": "Point", "coordinates": [14.41431, 50.07272]}, "properties": {"station_id": "27604462", "name": "P2-Palack\u00e9ho n\u00e1m\u011bst\u00ed - Ra\u0161\u00ednovo n\u00e1b\u0159e\u017e\u00ed", "short_name": "46227", "capacity": 10, "region_id": "661", "is_virtual_station": false}}, {"type": "Feature", "geometry": {"type": "Point", "coordinates": [14.394488, 50.105848]}, "properties": {"station_id": "27604465", "name": "P6-Jugosl\u00e1vsk\u00fdch partyz\u00e1n\u016f", "short_name": "46228", "capacity": 10, "region_id": "661", "is_virtual_station": false}}, {"type": "Feature", "geometry": {"type": "Point", "coordinates": [14.39636, 50.100115]}, "properties": {"station_id": "27604473", "name": "P6-V\u00edt\u011bzn\u00e9 n\u00e1m\u011bst\u00ed", "short_name": "46230", "capacity": 10, "region_id": "661", "is_virtual_station": false}}, {"type": "Feature", "geometry": {"type": "Point", "coordinates": [14.39597, 50.09889]}, "properties": {"station_id": "27604481", "name": "P6-Kafkova", "short_name": "46231", "capacity": 10, "region_id": "661", "is_virtual_station": false}}, {"type": "Feature", "geometry": {"type": "Point", "coordinates": [14.421302, 50.05739]}, "properties": {"station_id": "27604488", "name": "P4-Nedvedovo n\u00e1m\u011bst\u00ed", "short_name": "46232", "capacity": 10, "region_id": "661", "is_virtual_station": false}}, {"type": "Feature", "geometry": {"type": "Point", "coordinates": [14.394836, 50.106763]}, "properties": {"station_id": "27604496", "name": "P6-Jugosl\u00e1vsk\u00fdch partyz\u00e1n\u016f - U Topol\u016f", "short_name": "46234", "capacity": 10, "region_id": "661", "is_virtual_station": false}}, {"type": "Feature", "geometry": {"type": "Point", "coordinates": [14.3765, 50.10484]}, "properties": {"station_id": "27604500", "name": "P6-Na Hanspaulce", "short_name": "46235", "capacity": 10, "region_id": "661", "is_virtual_station": false}}, {"type": "Feature", "geometry": {"type": "Point", "coordinates": [14.38896, 50.10419]}, "properties": {"station_id": "27604509", "name": "P6-\u010cVUT Stavebn\u00ed", "short_name": "46236", "capacity": 10, "region_id": "661", "is_virtual_station": false}}, {"type": "Feature", "geometry": {"type": "Point", "coordinates": [14.39005, 50.10469]}, "properties": {"station_id": "27604515", "name": "P6-\u010cVUT Informa\u010dn\u00edch technologi\u00ed", "short_name": "46237", "capacity": 10, "region_id": "661", "is_virtual_station": false}}, {"type": "Feature", "geometry": {"type": "Point", "coordinates": [14.45115, 50.07984]}, "properties": {"station_id": "27604520", "name": "P3-Mile\u0161ovsk\u00e1 - Ond\u0159\u00ed\u010dkova", "short_name": "46238", "capacity": 10, "region_id": "661", "is_virtual_station": false}}, {"type": "Feature", "geometry": {"type": "Point", "coordinates": [14.44691, 50.106]}, "properties": {"station_id": "27604544", "name": "P7-U M\u011bstsk\u00e9ho pivovaru", "short_name": "46242", "capacity": 10, "region_id": "661", "is_virtual_station": false}}, {"type": "Feature", "geometry": {"type": "Point", "coordinates": [14.3863, 50.10245]}, "properties": {"station_id": "27604550", "name": "P6-Kolejn\u00ed - Sv. Vojt\u011bch", "short_name": "46243", "capacity": 10, "region_id": "661", "is_virtual_station": false}}, {"type": "Feature", "geometry": {"type": "Point", "coordinates": [14.43639, 50.10048]}, "properties": {"station_id": "27604570", "name": "P7-He\u0159manova Cafe Liberal", "short_name": "46247", "capacity": 10, "region_id": "661", "is_virtual_station": false}}, {"type": "Feature", "geometry": {"type": "Point", "coordinates": [14.43217, 50.09676]}, "properties": {"station_id": "27604575", "name": "P7-Dukelsk\u00fdch hrdin\u016f", "short_name": "46248", "capacity": 10, "region_id": "661", "is_virtual_station": false}}, {"type": "Feature", "geometry": {"type": "Point", "coordinates": [14.44882, 50.08218]}, "properties": {"station_id": "27604583", "name": "P3-Kubel\u00edkova-PAL\u00c1C AKROPOLIS", "short_name": "46249", "capacity": 10, "region_id": "661", "is_virtual_station": false}}, {"type": "Feature", "geometry": {"type": "Point", "coordinates": [14.45543, 50.08166]}, "properties": {"station_id": "27604589", "name": "P3-\u017di\u017ekovo n\u00e1m. - Ond\u0159\u00ed\u010dkova", "short_name": "46250", "capacity": 10, "region_id": "661", "is_virtual_station": false}}, {"type": "Feature", "geometry": {"type": "Point", "coordinates": [14.42916, 50.09959]}, "properties": {"station_id": "27604608", "name": "P7-Milady Horakov\u00e9 - sm\u011br Letn\u00e1", "short_name": "46253", "capacity": 10, "region_id": "661", "is_virtual_station": false}}, {"type": "Feature", "geometry": {"type": "Point", "coordinates": [14.422994, 50.100267]}, "properties": {"station_id": "27604610", "name": "P7-Letensk\u00e9 n\u00e1m\u011bst\u00ed / MBank", "short_name": "46254", "capacity": 10, "region_id": "661", "is_virtual_station": false}}, {"type": "Feature", "geometry": {"type": "Point", "coordinates": [14.4177, 50.099314]}, "properties": {"station_id": "27604621", "name": "P7-Sparta", "short_name": "46256", "capacity": 10, "region_id": "661", "is_virtual_station": false}}, {"type": "Feature", "geometry": {"type": "Point", "coordinates": [14.43482, 50.07532]}, "properties": {"station_id": "27604646", "name": "P2-Jugoslavsk\u00e1 - N\u00e1m\u011bst\u00ed M\u00edru", "short_name": "46260", "capacity": 10, "region_id": "661", "is_virtual_station": false}}, {"type": "Feature", "geometry": {"type": "Point", "coordinates": [14.44947, 50.1077]}, "properties": {"station_id": "27604654", "name": "P7-Ortenovo n\u00e1m\u011bst\u00ed", "short_name": "46262", "capacity": 10, "region_id": "661", "is_virtual_station": false}}, {"type": "Feature", "geometry": {"type": "Point", "coordinates": [14.44746, 50.10845]}, "properties": {"station_id": "27604658", "name": "P7-Ortenovo n\u00e1m\u011bst\u00ed 3", "short_name": "46263", "capacity": 10, "region_id": "661", "is_virtual_station": false}}, {"type": "Feature", "geometry": {"type": "Point", "coordinates": [14.44212, 50.10779]}, "properties": {"station_id": "27604665", "name": "P7-\u017delezni\u010d\u00e1\u0159\u016f", "short_name": "46265", "capacity": 10, "region_id": "661", "is_virtual_station": false}}, {"type": "Feature", "geometry": {"type": "Point", "coordinates": [14.4007, 50.10055]}, "properties": {"station_id": "27604688", "name": "P6-\u010ceskoslovensk\u00e9 Arm\u00e1dy - V.P.\u010ckalova", "short_name": "46268", "capacity": 10, "region_id": "661", "is_virtual_station": false}}, {"type": "Feature", "geometry": {"type": "Point", "coordinates": [14.3925, 50.11166]}, "properties": {"station_id": "27604711", "name": "P6-Kaufland Podbaba", "short_name": "46271", "capacity": 10, "region_id": "661", "is_virtual_station": false}}, {"type": "Feature", "geometry": {"type": "Point", "coordinates": [14.394954, 50.109281]}, "properties": {"station_id": "27604720", "name": "P6-Terronsk\u00e1", "short_name": "46273", "capacity": 10, "region_id": "661", "is_virtual_station": false}}, {"type": "Feature", "geometry": {"type": "Point", "coordinates": [14.44035, 50.08549]}, "properties": {"station_id": "27604723", "name": "P3-\u0158eho\u0159ova - Seifertova", "short_name": "46274", "capacity": 10, "region_id": "661", "is_virtual_station": false}}, {"type": "Feature", "geometry": {"type": "Point", "coordinates": [14.45038, 50.1085]}, "properties": {"station_id": "27604729", "name": "P7-Ortenovo n\u00e1m\u011bst\u00ed 2", "short_name": "46275", "capacity": 10, "region_id": "661", "is_virtual_station": false}}, {"type": "Feature", "geometry": {"type": "Point", "coordinates": [14.39463, 50.11247]}, "properties": {"station_id": "27604743", "name": "P6-Praha Podbaba", "short_name": "46278", "capacity": 10, "region_id": "661", "is_virtual_station": false}}, {"type": "Feature", "geometry": {"type": "Point", "coordinates": [14.454199, 50.107107]}, "properties": {"station_id": "27604758", "name": "P7-Classic Business Park", "short_name": "46280", "capacity": 10, "region_id": "661", "is_virtual_station": false}}, {"type": "Feature", "geometry": {"type": "Point", "coordinates": [14.44583, 50.085]}, "properties": {"station_id": "27604763", "name": "P3-Seifertova 559/51", "short_name": "46281", "capacity": 10, "region_id": "661", "is_virtual_station": false}}, {"type": "Feature", "geometry": {"type": "Point", "coordinates": [14.42857, 50.08759]}, "properties": {"station_id": "27604767", "name": "P1-D\u016fm U Hybern\u016f", "short_name": "46282", "capacity": 10, "region_id": "661", "is_virtual_station": false}}, {"type": "Feature", "geometry": {"type": "Point", "coordinates": [14.45524, 50.10765]}, "properties": {"station_id": "27604773", "name": "P7-V P\u0159\u00edstavu", "short_name": "46283", "capacity": 10, "region_id": "661", "is_virtual_station": false}}, {"type": "Feature", "geometry": {"type": "Point", "coordinates": [14.43428, 50.09355]}, "properties": {"station_id": "27604778", "name": "P1-Ministerstvo dopravy", "short_name": "46284", "capacity": 10, "region_id": "661", "is_virtual_station": false}}, {"type": "Feature", "geometry": {"type": "Point", "coordinates": [14.45538, 50.10528]}, "properties": {"station_id": "27604780", "name": "P7-Kruhov\u00fd objezd U Pr\u016fhonu", "short_name": "46285", "capacity": 10, "region_id": "661", "is_virtual_station": false}}, {"type": "Feature", "geometry": {"type": "Point", "coordinates": [14.441255, 50.085097]}, "properties": {"station_id": "27604784", "name": "P3-n\u00e1m\u011bst\u00ed W. Churchilla, Seifertova - Italsk\u00e1", "short_name": "46286", "capacity": 10, "region_id": "661", "is_virtual_station": false}}, {"type": "Feature", "geometry": {"type": "Point", "coordinates": [14.41824, 50.103]}, "properties": {"station_id": "27604789", "name": "P7-Nad Kr\u00e1lovskou oborou", "short_name": "46287", "capacity": 10, "region_id": "661", "is_virtual_station": false}}, {"type": "Feature", "geometry": {"type": "Point", "coordinates": [14.45326, 50.10506]}, "properties": {"station_id": "27604822", "name": "P7-U Pr\u016fhonu", "short_name": "46291", "capacity": 10, "region_id": "661", "is_virtual_station": false}}, {"type": "Feature", "geometry": {"type": "Point", "coordinates": [14.45283, 50.10047]}, "properties": {"station_id": "27604831", "name": "P7-Vltavsk\u00e1 vyhl\u00eddka", "short_name": "46292", "capacity": 10, "region_id": "661", "is_virtual_station": false}}, {"type": "Feature", "geometry": {"type": "Point", "coordinates": [14.41991, 50.100528]}, "properties": {"station_id": "27604839", "name": "P7-Z\u0160 Korunova\u010dn\u00ed", "short_name": "46293", "capacity": 10, "region_id": "661", "is_virtual_station": false}}, {"type": "Feature", "geometry": {"type": "Point", "coordinates": [14.43058, 50.092841]}, "properties": {"station_id": "27604881", "name": "P1- p\u0159ed h\u0159i\u0161t\u011bm Lannova", "short_name": "46295", "capacity": 10, "region_id": "661", "is_virtual_station": false}}, {"type": "Feature", "geometry": {"type": "Point", "coordinates": [14.42835, 50.08924]}, "properties": {"station_id": "27604901", "name": "P1-N\u00e1m\u011bst\u00ed Republiky (v\u00fdstup E5)", "short_name": "46298", "capacity": 10, "region_id": "661", "is_virtual_station": false}}, {"type": "Feature", "geometry": {"type": "Point", "coordinates": [14.44418, 50.1015]}, "properties": {"station_id": "27604903", "name": "P7-Jate\u010dn\u00ed - TUSAROVA", "short_name": "46299", "capacity": 10, "region_id": "661", "is_virtual_station": false}}, {"type": "Feature", "geometry": {"type": "Point", "coordinates": [14.447086, 50.101726]}, "properties": {"station_id": "27604919", "name": "P7-Tusarova/Osadn\u00ed", "short_name": "46301", "capacity": 10, "region_id": "661", "is_virtual_station": false}}, {"type": "Feature", "geometry": {"type": "Point", "coordinates": [14.449264, 50.100343]}, "properties": {"station_id": "27604928", "name": "P7-ALZA .CZ", "short_name": "46304", "capacity": 10, "region_id": "661", "is_virtual_station": false}}, {"type": "Feature", "geometry": {"type": "Point", "coordinates": [14.4439, 50.10343]}, "properties": {"station_id": "27604934", "name": "P7-D\u011blnick\u00e1 Billa", "short_name": "46305", "capacity": 10, "region_id": "661", "is_virtual_station": false}}, {"type": "Feature", "geometry": {"type": "Point", "coordinates": [14.446496, 50.100535]}, "properties": {"station_id": "27604940", "name": "P7-L\u00e9k\u00e1rna F\u00f3rum", "short_name": "46306", "capacity": 10, "region_id": "661", "is_virtual_station": false}}, {"type": "Feature", "geometry": {"type": "Point", "coordinates": [14.44912, 50.10165]}, "properties": {"station_id": "27604949", "name": "P7-Tusarova", "short_name": "46307", "capacity": 10, "region_id": "661", "is_virtual_station": false}}, {"type": "Feature", "geometry": {"type": "Point", "coordinates": [14.42649, 50.08178]}, "properties": {"station_id": "27604958", "name": "P1-V\u00e1clavsk\u00e9 n\u00e1m\u011bst\u00ed", "short_name": "46308", "capacity": 10, "region_id": "661", "is_virtual_station": false}}, {"type": "Feature", "geometry": {"type": "Point", "coordinates": [14.42233, 50.08205]}, "properties": {"station_id": "27604963", "name": "P1-Jungmanova magistr\u00e1t", "short_name": "46309", "capacity": 10, "region_id": "661", "is_virtual_station": false}}, {"type": "Feature", "geometry": {"type": "Point", "coordinates": [14.42044, 50.08148]}, "properties": {"station_id": "27604970", "name": "P1-Quadrio - Franz Kafka", "short_name": "46310", "capacity": 10, "region_id": "661", "is_virtual_station": false}}, {"type": "Feature", "geometry": {"type": "Point", "coordinates": [14.42342, 50.10253]}, "properties": {"station_id": "27604982", "name": "P7-U Akademie/ vjezd Stromovka", "short_name": "46313", "capacity": 10, "region_id": "661", "is_virtual_station": false}}, {"type": "Feature", "geometry": {"type": "Point", "coordinates": [14.42224, 50.08297]}, "properties": {"station_id": "27605002", "name": "P1-Jungmannovo n\u00e1m\u011bst\u00ed (v\u00fdstup E4)", "short_name": "46314", "capacity": 10, "region_id": "661", "is_virtual_station": false}}, {"type": "Feature", "geometry": {"type": "Point", "coordinates": [14.42457, 50.10259]}, "properties": {"station_id": "27605066", "name": "P7-U Akademie -AVU", "short_name": "46316", "capacity": 10, "region_id": "661", "is_virtual_station": false}}, {"type": "Feature", "geometry": {"type": "Point", "coordinates": [14.41414, 50.07973]}, "properties": {"station_id": "27605075", "name": "P1- Goethe Institut", "short_name": "46318", "capacity": 10, "region_id": "661", "is_virtual_station": false}}, {"type": "Feature", "geometry": {"type": "Point", "coordinates": [14.42846, 50.10228]}, "properties": {"station_id": "27605103", "name": "P7-U Stud\u00e1nky", "short_name": "46319", "capacity": 10, "region_id": "661", "is_virtual_station": false}}, {"type": "Feature", "geometry": {"type": "Point", "coordinates": [14.43315, 50.10058]}, "properties": {"station_id": "27605114", "name": "P7-He\u0159manova", "short_name": "46321", "capacity": 10, "region_id": "661", "is_virtual_station": false}}, {"type": "Feature", "geometry": {"type": "Point", "coordinates": [14.43419, 50.09776]}, "properties": {"station_id": "27605143", "name": "P7- Na Ov\u010din\u00e1ch (cyklostojany u UM\u010c Prahy 7)", "short_name": "46325", "capacity": 10, "region_id": "661", "is_virtual_station": false}}, {"type": "Feature", "geometry": {"type": "Point", "coordinates": [14.43458, 50.09855]}, "properties": {"station_id": "27605151", "name": "P7-Strosmayerovo n\u00e1m\u011bst\u00ed", "short_name": "46326", "capacity": 10, "region_id": "661", "is_virtual_station": false}}, {"type": "Feature", "geometry": {"type": "Point", "coordinates": [14.42001, 50.08409]}, "properties": {"station_id": "27605159", "name": "P1-Uheln\u00fd trh", "short_name": "46327", "capacity": 10, "region_id": "661", "is_virtual_station": false}}, {"type": "Feature", "geometry": {"type": "Point", "coordinates": [14.512532, 50.104327]}, "properties": {"station_id": "27605160", "name": "P9-Pod Harfou", "short_name": "46328", "capacity": 10, "region_id": "661", "is_virtual_station": false}}, {"type": "Feature", "geometry": {"type": "Point", "coordinates": [14.493257, 50.10859]}, "properties": {"station_id": "27605172", "name": "P9-Ps\u00ed louka", "short_name": "46330", "capacity": 10, "region_id": "661", "is_virtual_station": false}}, {"type": "Feature", "geometry": {"type": "Point", "coordinates": [14.469541, 50.105201]}, "properties": {"station_id": "27605207", "name": "P8- DOCK IN (nov\u011b u vody)", "short_name": "46336", "capacity": 10, "region_id": "661", "is_virtual_station": false}}, {"type": "Feature", "geometry": {"type": "Point", "coordinates": [14.49231, 50.10522]}, "properties": {"station_id": "27605342", "name": "P9-O2 Ar\u00e9na- Harfa", "short_name": "46339", "capacity": 10, "region_id": "661", "is_virtual_station": false}}, {"type": "Feature", "geometry": {"type": "Point", "coordinates": [14.41743, 50.09203]}, "properties": {"station_id": "27605355", "name": "P1-Pr\u00e1vnick\u00e1 fakulta", "short_name": "46341", "capacity": 10, "region_id": "661", "is_virtual_station": false}}, {"type": "Feature", "geometry": {"type": "Point", "coordinates": [14.410184, 50.090834]}, "properties": {"station_id": "27605364", "name": "P1- Malostransk\u00e1 (tram)", "short_name": "46342", "capacity": 10, "region_id": "661", "is_virtual_station": false}}, {"type": "Feature", "geometry": {"type": "Point", "coordinates": [14.450481, 50.057934]}, "properties": {"station_id": "27605390", "name": "P4-Adamovsk\u00e1", "short_name": "46347", "capacity": 10, "region_id": "661", "is_virtual_station": false}}, {"type": "Feature", "geometry": {"type": "Point", "coordinates": [14.47265, 50.07862]}, "properties": {"station_id": "27605398", "name": "P3-Vinohradsk\u00e1 - Jana \u017delivsk\u00e9ho", "short_name": "46348", "capacity": 10, "region_id": "661", "is_virtual_station": false}}, {"type": "Feature", "geometry": {"type": "Point", "coordinates": [14.471237, 50.109862]}, "properties": {"station_id": "27605419", "name": "P8-U Meteoru", "short_name": "46351", "capacity": 10, "region_id": "661", "is_virtual_station": false}}, {"type": "Feature", "geometry": {"type": "Point", "coordinates": [14.476966, 50.071371]}, "properties": {"station_id": "27605433", "name": "P10-Kub\u00e1nsk\u00e9 n\u00e1m\u011bst\u00ed", "short_name": "46353", "capacity": 10, "region_id": "661", "is_virtual_station": false}}, {"type": "Feature", "geometry": {"type": "Point", "coordinates": [14.460937, 50.126456]}, "properties": {"station_id": "27605438", "name": "P8-\u010cumpel\u00edkova", "short_name": "46354", "capacity": 10, "region_id": "661", "is_virtual_station": false}}, {"type": "Feature", "geometry": {"type": "Point", "coordinates": [14.419073, 50.059281]}, "properties": {"station_id": "27605463", "name": "P4-Podol\u00ed - Marina", "short_name": "46358", "capacity": 12, "region_id": "661", "is_virtual_station": false}}, {"type": "Feature", "geometry": {"type": "Point", "coordinates": [14.43187, 50.07531]}, "properties": {"station_id": "27605484", "name": "P2-TYLOVO N\u00c1M\u011aST\u00cd - Jugosl\u00e1vsk\u00e1", "short_name": "46361", "capacity": 10, "region_id": "661", "is_virtual_station": false}}, {"type": "Feature", "geometry": {"type": "Point", "coordinates": [14.46762, 50.07801]}, "properties": {"station_id": "27605489", "name": "P3-Vinohradsk\u00e1 - n\u00e1m\u011bst\u00ed Ji\u0159\u00edho z Lobkovic", "short_name": "46362", "capacity": 10, "region_id": "661", "is_virtual_station": false}}, {"type": "Feature", "geometry": {"type": "Point", "coordinates": [14.459, 50.07959]}, "properties": {"station_id": "27605500", "name": "P3-Lucembursk\u00e1 - Sudom\u011b\u0159sk\u00e1", "short_name": "46364", "capacity": 10, "region_id": "661", "is_virtual_station": false}}, {"type": "Feature", "geometry": {"type": "Point", "coordinates": [14.46764, 50.08407]}, "properties": {"station_id": "27605513", "name": "P3-Ol\u0161ansk\u00e1 2666/7", "short_name": "46366", "capacity": 10, "region_id": "661", "is_virtual_station": false}}, {"type": "Feature", "geometry": {"type": "Point", "coordinates": [14.46687, 50.0772]}, "properties": {"station_id": "27605525", "name": "P3-n\u00e1m\u011bst\u00ed Ji\u0159\u00edho z Lobkovic", "short_name": "46368", "capacity": 10, "region_id": "661", "is_virtual_station": false}}, {"type": "Feature", "geometry": {"type": "Point", "coordinates": [14.486332, 50.109746]}, "properties": {"station_id": "27605532", "name": "P9-Podvinn\u00fd ml\u00fdn", "short_name": "46369", "capacity": 10, "region_id": "661", "is_virtual_station": false}}, {"type": "Feature", "geometry": {"type": "Point", "coordinates": [14.44733, 50.08592]}, "properties": {"station_id": "27605535", "name": "P3-Kostnick\u00e9 n\u00e1m\u011bst\u00ed", "short_name": "46370", "capacity": 10, "region_id": "661", "is_virtual_station": false}}, {"type": "Feature", "geometry": {"type": "Point", "coordinates": [14.46317, 50.08704]}, "properties": {"station_id": "27605550", "name": "P3-V Kapslovn\u011b 2765/15", "short_name": "46372", "capacity": 10, "region_id": "661", "is_virtual_station": false}}, {"type": "Feature", "geometry": {"type": "Point", "coordinates": [14.46196, 50.08842]}, "properties": {"station_id": "27605557", "name": "P3-N\u00e1m\u011bst\u00ed Barik\u00e1d - \u010cern\u00ednova", "short_name": "46373", "capacity": 10, "region_id": "661", "is_virtual_station": false}}, {"type": "Feature", "geometry": {"type": "Point", "coordinates": [14.404863, 50.070497]}, "properties": {"station_id": "27605563", "name": "P5-And\u011bl - ul. N\u00e1dra\u017en\u00ed (v\u00fdstup E6)", "short_name": "46374", "capacity": 10, "region_id": "661", "is_virtual_station": false}}, {"type": "Feature", "geometry": {"type": "Point", "coordinates": [14.43958, 50.08628]}, "properties": {"station_id": "27605584", "name": "P3-P\u0159\u00edb\u011bnick\u00e1 - Seifertova", "short_name": "46377", "capacity": 10, "region_id": "661", "is_virtual_station": false}}, {"type": "Feature", "geometry": {"type": "Point", "coordinates": [14.45576, 50.08073]}, "properties": {"station_id": "27605588", "name": "P3-\u017di\u017ekovo n\u00e1m\u011bst\u00ed", "short_name": "46378", "capacity": 10, "region_id": "661", "is_virtual_station": false}}, {"type": "Feature", "geometry": {"type": "Point", "coordinates": [14.465121, 50.090917]}, "properties": {"station_id": "27605599", "name": "P3-Park V\u00edtkov/ Na Ohrad\u011b", "short_name": "46379", "capacity": 10, "region_id": "661", "is_virtual_station": false}}, {"type": "Feature", "geometry": {"type": "Point", "coordinates": [14.46868, 50.08831]}, "properties": {"station_id": "27605605", "name": "P3-Jeseniova - Jana \u017delivsk\u00e9ho", "short_name": "46380", "capacity": 10, "region_id": "661", "is_virtual_station": false}}, {"type": "Feature", "geometry": {"type": "Point", "coordinates": [14.40308, 50.07206]}, "properties": {"station_id": "27605610", "name": "P5-And\u011bl - vstup do OC", "short_name": "46381", "capacity": 10, "region_id": "661", "is_virtual_station": false}}, {"type": "Feature", "geometry": {"type": "Point", "coordinates": [14.49167, 50.09239]}, "properties": {"station_id": "27605624", "name": "P3-Hartigova 223", "short_name": "46382", "capacity": 10, "region_id": "661", "is_virtual_station": false}}, {"type": "Feature", "geometry": {"type": "Point", "coordinates": [14.47842, 50.09206]}, "properties": {"station_id": "27605632", "name": "P3-Hartigova - Za \u017di\u017ekovskou vozovnou", "short_name": "46383", "capacity": 10, "region_id": "661", "is_virtual_station": false}}, {"type": "Feature", "geometry": {"type": "Point", "coordinates": [14.47184, 50.09]}, "properties": {"station_id": "27605637", "name": "P3-Biskupcova 1733/31", "short_name": "46384", "capacity": 10, "region_id": "661", "is_virtual_station": false}}, {"type": "Feature", "geometry": {"type": "Point", "coordinates": [14.478811, 50.068658]}, "properties": {"station_id": "27605645", "name": "P10-Zimn\u00ed stadion Eden", "short_name": "46385", "capacity": 10, "region_id": "661", "is_virtual_station": false}}, {"type": "Feature", "geometry": {"type": "Point", "coordinates": [14.46648, 50.08987]}, "properties": {"station_id": "27605652", "name": "P3-Zelenky Hajsk\u00e9ho - Hartigova", "short_name": "46386", "capacity": 10, "region_id": "661", "is_virtual_station": false}}, {"type": "Feature", "geometry": {"type": "Point", "coordinates": [14.47734, 50.09383]}, "properties": {"station_id": "27605681", "name": "P3-Za \u017di\u017ekovskou vozovnou - vstup k baz\u00e9nu v ulici", "short_name": "46389", "capacity": 10, "region_id": "661", "is_virtual_station": false}}, {"type": "Feature", "geometry": {"type": "Point", "coordinates": [14.45797, 50.084515]}, "properties": {"station_id": "27605696", "name": "P3-Paruk\u00e1\u0159ka", "short_name": "46391", "capacity": 10, "region_id": "661", "is_virtual_station": false}}, {"type": "Feature", "geometry": {"type": "Point", "coordinates": [14.45402, 50.0849]}, "properties": {"station_id": "27605740", "name": "P3-Havl\u00ed\u010dkovo n\u00e1m\u011bst\u00ed", "short_name": "46393", "capacity": 10, "region_id": "661", "is_virtual_station": false}}, {"type": "Feature", "geometry": {"type": "Point", "coordinates": [14.484656, 50.092366]}, "properties": {"station_id": "27605762", "name": "P3-Palachova Kolej", "short_name": "46396", "capacity": 10, "region_id": "661", "is_virtual_station": false}}, {"type": "Feature", "geometry": {"type": "Point", "coordinates": [14.418091, 50.066606]}, "properties": {"station_id": "27605770", "name": "P2-U Kroka - Vratislavova", "short_name": "46397", "capacity": 10, "region_id": "661", "is_virtual_station": false}}, {"type": "Feature", "geometry": {"type": "Point", "coordinates": [14.40711, 50.07317]}, "properties": {"station_id": "27605787", "name": "P5-N\u00e1m\u011bst\u00ed 14. \u0159\u00edjna - \u00daM\u010c", "short_name": "46399", "capacity": 10, "region_id": "661", "is_virtual_station": false}}, {"type": "Feature", "geometry": {"type": "Point", "coordinates": [14.40444, 50.07667]}, "properties": {"station_id": "27605795", "name": "P5-Arbesovo n\u00e1m\u011bst\u00ed", "short_name": "46400", "capacity": 10, "region_id": "661", "is_virtual_station": false}}, {"type": "Feature", "geometry": {"type": "Point", "coordinates": [14.45555, 50.08498]}, "properties": {"station_id": "27605801", "name": "P3-Rokycanova - Jeseniova - Prokopova", "short_name": "46401", "capacity": 10, "region_id": "661", "is_virtual_station": false}}, {"type": "Feature", "geometry": {"type": "Point", "coordinates": [14.40446, 50.07892]}, "properties": {"station_id": "27605810", "name": "P5-n\u00e1m\u011bst\u00ed Kinsk\u00fdch 1", "short_name": "46402", "capacity": 10, "region_id": "661", "is_virtual_station": false}}, {"type": "Feature", "geometry": {"type": "Point", "coordinates": [14.40905, 50.06117]}, "properties": {"station_id": "27605821", "name": "P5-Sm\u00edchovsk\u00e9 n\u00e1dra\u017e\u00ed (v\u00fdstup E3)", "short_name": "46403", "capacity": 10, "region_id": "661", "is_virtual_station": false}}, {"type": "Feature", "geometry": {"type": "Point", "coordinates": [14.40712, 50.07949]}, "properties": {"station_id": "27605824", "name": "P5-Zborovsk\u00e1 - Pet\u0159\u00ednsk\u00e1", "short_name": "46404", "capacity": 10, "region_id": "661", "is_virtual_station": false}}, {"type": "Feature", "geometry": {"type": "Point", "coordinates": [14.40364, 50.0736]}, "properties": {"station_id": "27605831", "name": "P5-\u0160tef\u00e1nikova - vstup do OC", "short_name": "46405", "capacity": 10, "region_id": "661", "is_virtual_station": false}}, {"type": "Feature", "geometry": {"type": "Point", "coordinates": [14.48796, 50.04795]}, "properties": {"station_id": "33513241", "name": "P4-Instalat\u00e9\u0159sk\u00e9 pot\u0159eby Borovi\u010dka", "short_name": "46899", "capacity": 6, "region_id": "661", "is_virtual_station": false}}, {"type": "Feature", "geometry": {"type": "Point", "coordinates": [14.43184, 50.04985]}, "properties": {"station_id": "33513267", "name": "P4-Centr\u00e1ln\u00ed park Pankr\u00e1c", "short_name": "46898", "capacity": 10, "region_id": "661", "is_virtual_station": false}}, {"type": "Feature", "geometry": {"type": "Point", "coordinates": [14.40979, 50.03467]}, "properties": {"station_id": "33513328", "name": "P4-Na Mlejnku", "short_name": "46895", "capacity": 10, "region_id": "661", "is_virtual_station": false}}, {"type": "Feature", "geometry": {"type": "Point", "coordinates": [14.41552, 50.03455]}, "properties": {"station_id": "33513364", "name": "P4-Branick\u00e9 n\u00e1m\u011bst\u00ed", "short_name": "46893", "capacity": 4, "region_id": "661", "is_virtual_station": false}}, {"type": "Feature", "geometry": {"type": "Point", "coordinates": [14.40793, 50.03356]}, "properties": {"station_id": "33513381", "name": "P4-Pob\u0159e\u017en\u00ed cesta", "short_name": "46892", "capacity": 10, "region_id": "661", "is_virtual_station": false}}, {"type": "Feature", "geometry": {"type": "Point", "coordinates": [14.448261, 50.059326]}, "properties": {"station_id": "33513449", "name": "P4-Park Jezerka", "short_name": "46890", "capacity": 5, "region_id": "661", "is_virtual_station": false}}, {"type": "Feature", "geometry": {"type": "Point", "coordinates": [14.46649, 50.04619]}, "properties": {"station_id": "33513579", "name": "P4-Z\u0160 Na L\u00ed\u0161e", "short_name": "46884", "capacity": 6, "region_id": "661", "is_virtual_station": false}}, {"type": "Feature", "geometry": {"type": "Point", "coordinates": [14.54426, 50.109008]}, "properties": {"station_id": "53621234", "name": "P14-Kaufland Hloub\u011bt\u00edn", "short_name": "48320", "capacity": 10, "region_id": "661", "is_virtual_station": false}}, {"type": "Feature", "geometry": {"type": "Point", "coordinates": [14.458508, 50.105456]}, "properties": {"station_id": "55310477", "name": "P7- Sanderova", "short_name": "48350", "capacity": 2, "region_id": "661", "is_virtual_station": false}}, {"type": "Feature", "geometry": {"type": "Point", "coordinates": [14.305674, 50.046182]}, "properties": {"station_id": "66019118", "name": "P13- Komer\u010dn\u00ed banka (Alza box)", "short_name": "48390", "capacity": 10, "region_id": "661", "is_virtual_station": false}}, {"type": "Feature", "geometry": {"type": "Point", "coordinates": [14.443347, 50.102029]}, "properties": {"station_id": "82659467", "name": "P7-Argentinsk\u00e1", "short_name": "49406", "capacity": 4, "region_id": "661", "is_virtual_station": false}}, {"type": "Feature", "geometry": {"type": "Point", "coordinates": [14.410136, 50.050922]}, "properties": {"station_id": "84470683", "name": "P5-zast\u00e1vka Lihovar", "short_name": "49410", "capacity": 5, "region_id": "661", "is_virtual_station": false}}, {"type": "Feature", "geometry": {"type": "Point", "coordinates": [14.443438, 50.102741]}, "properties": {"station_id": "107399412", "name": "P7-Argentinsk\u00e1 2", "short_name": "49482", "capacity": 3, "region_id": "661", "is_virtual_station": false}}, {"type": "Feature", "geometry": {"type": "Point", "coordinates": [14.449564, 50.105115]}, "properties": {"station_id": "108912223", "name": "P7- M\u00da Praha 7 (stojany)", "short_name": "49483", "capacity": 10, "region_id": "661", "is_virtual_station": false}}, {"type": "Feature", "geometry": {"type": "Point", "coordinates": [14.458904, 50.093271]}, "properties": {"station_id": "114107353", "name": "P8-Z\u0160 Ly\u010dkovo n\u00e1m\u011bst\u00ed/Kubova", "short_name": "49497", "capacity": 5, "region_id": "661", "is_virtual_station": false}}, {"type": "Feature", "geometry": {"type": "Point", "coordinates": [14.441003, 50.093002]}, "properties": {"station_id": "114570970", "name": "P8- International Business Centrum (stojany, ne pod schody u gar\u00e1\u017e\u00ed!)", "short_name": "49498", "capacity": 4, "region_id": "661", "is_virtual_station": false}}, {"type": "Feature", "geometry": {"type": "Point", "coordinates": [14.421889, 50.091222]}, "properties": {"station_id": "117833757", "name": "P1- B\u00edlkova 21", "short_name": "49508", "capacity": 6, "region_id": "661", "is_virtual_station": false}}, {"type": "Feature", "geometry": {"type": "Point", "coordinates": [14.446839, 50.107647]}, "properties": {"station_id": "126716004", "name": "P7- Osadn\u00ed/ Ortenovo n\u00e1m.", "short_name": "49528", "capacity": 10, "region_id": "661", "is_virtual_station": false}}, {"type": "Feature", "geometry": {"type": "Point", "coordinates": [14.424298, 50.083527]}, "properties": {"station_id": "145960323", "name": "P1- V\u00e1clavsk\u00e9 n\u00e1m\u011bst\u00ed spodn\u00ed \u010d\u00e1st 2 (v\u00fdstup E1)", "short_name": "49540", "capacity": 10, "region_id": "661", "is_virtual_station": false}}, {"type": "Feature", "geometry": {"type": "Point", "coordinates": [14.425183, 50.082869]}, "properties": {"station_id": "145960516", "name": "P1- V\u00e1clavsk\u00e9 n\u00e1m\u011bst\u00ed spodn\u00ed \u010d\u00e1st 3", "short_name": "49541", "capacity": 10, "region_id": "661", "is_virtual_station": false}}, {"type": "Feature", "geometry": {"type": "Point", "coordinates": [14.44612, 50.06176]}, "properties": {"station_id": "288969279", "name": "P4-Horky", "short_name": "45687", "capacity": 4, "region_id": "661", "is_virtual_station": false}}, {"type": "Feature", "geometry": {"type": "Point", "coordinates": [14.404304, 50.071823]}, "properties": {"station_id": "303019526", "name": "P5- And\u011bl - n\u00e1ro\u017e\u00ed \u0160tef\u00e1nikova x N\u00e1dra\u017en\u00ed", "short_name": "45717", "capacity": 12, "region_id": "661", "is_virtual_station": false}}, {"type": "Feature", "geometry": {"type": "Point", "coordinates": [14.422377, 50.081341]}, "properties": {"station_id": "469654729", "name": "P1- Jungmannova / Palack\u00e9ho", "short_name": "49268", "capacity": 6, "region_id": "661", "is_virtual_station": false}}, {"type": "Feature", "geometry": {"type": "Point", "coordinates": [14.424924, 50.077853]}, "properties": {"station_id": "496422315", "name": "P1- \u0160t\u011bp\u00e1nsk\u00e1 / \u0158eznick\u00e1", "short_name": "495408", "capacity": 4, "region_id": "661", "is_virtual_station": false}}, {"type": "Feature", "geometry": {"type": "Point", "coordinates": [14.43267, 50.0884]}, "properties": {"station_id": "601960432", "name": "P1-Masarykovo n\u00e1dra\u017e\u00ed (v\u00fdstup E2)", "short_name": "49977", "capacity": 10, "region_id": "661", "is_virtual_station": false}}, {"type": "Feature", "geometry": {"type": "Point", "coordinates": [14.44395, 50.094437]}, "properties": {"station_id": "606822396", "name": "P8-Danube House", "short_name": "46317", "capacity": 10, "region_id": "661", "is_virtual_station": false}}, {"type": "Feature", "geometry": {"type": "Point", "coordinates": [14.41787, 50.08702]}, "properties": {"station_id": "606836348", "name": "P1-Magistr\u00e1t", "short_name": "46322", "capacity": 10, "region_id": "661", "is_virtual_station": false}}, {"type": "Feature", "geometry": {"type": "Point", "coordinates": [14.41368, 50.0469]}, "properties": {"station_id": "607674606", "name": "P4-Dvorce", "short_name": "472319", "capacity": 8, "region_id": "661", "is_virtual_station": false}}, {"type": "Feature", "geometry": {"type": "Point", "coordinates": [14.42716, 50.09991]}, "properties": {"station_id": "608942206", "name": "P7-Milady Hor\u00e1kov\u00e9 x Kamenick\u00e1", "short_name": "472328", "capacity": 8, "region_id": "661", "is_virtual_station": false}}]}
