{"type": "FeatureCollection", "features": [{"type": "Feature", "geometry": {"type": "Point", "coordinates": [14.429220199584961, 50.08806610107422]}, "properties": {"station_code": "AREP", "name": "Praha 1-n. Republiky", "active": true, "station_type": "poza\u010fov\u00e1", "zone_type": "m\u011bstsk\u00e1", "city": "", "street": "", "region": "Praha"}}, {"type": "Feature", "geometry": {"type": "Point", "coordinates": [14.430672645568848, 50.0723876953125]}, "properties": {"station_code": "ALEG", "name": "Praha 2-Legerova (hot spot)", "active": true, "station_type": "dopravn\u00ed", "zone_type": "m\u011bstsk\u00e1", "city": "Praha 2", "street": "Legerov 1843", "region": "Praha"}}, {"type": "Feature", "geometry": {"type": "Point", "coordinates": [14.442049026489258, 50.09423828125]}, "properties": {"station_code": "AKAL", "name": "Praha 8-Karl\u00edn", "active": true, "station_type": "dopravn\u00ed", "zone_type": "m\u011bstsk\u00e1", "city": "", "street": "", "region": "Praha"}}, {"type": "Feature", "geometry": {"type": "Point", "coordinates": [14.503095626831055, 50.111080169677734]}, "properties": {"station_code": "AVYN", "name": "Praha 9-Vyso\u010dany", "active": true, "station_type": "dopravn\u00ed", "zone_type": "m\u011bstsk\u00e1", "city": "", "street": "", "region": "Praha"}}, {"type": "Feature", "geometry": {"type": "Point", "coordinates": [14.44593334197998, 50.00730514526367]}, "properties": {"station_code": "ALIB", "name": "Praha 4-Libu\u0161", "active": true, "station_type": "poza\u010fov\u00e1", "zone_type": "p\u0159edm\u011bstsk\u00e1", "city": "", "street": "", "region": "Praha"}}, {"type": "Feature", "geometry": {"type": "Point", "coordinates": [14.331413269042969, 50.0461311340332]}, "properties": {"station_code": "ASTO", "name": "Praha 5-Stod\u016flky", "active": true, "station_type": "poza\u010fov\u00e1", "zone_type": "m\u011bstsk\u00e1", "city": "", "street": "", "region": "Praha"}}, {"type": "Feature", "geometry": {"type": "Point", "coordinates": [14.537819862365723, 50.06229782104492]}, "properties": {"station_code": "APRU", "name": "Praha 10-Pr\u016fmyslov\u00e1", "active": true, "station_type": "dopravn\u00ed", "zone_type": "m\u011bstsk\u00e1", "city": "", "street": "", "region": "Praha"}}, {"type": "Feature", "geometry": {"type": "Point", "coordinates": [14.443650245666504, 50.10884475708008]}, "properties": {"station_code": "AHOL", "name": "Praha 7-Hole\u0161ovice", "active": true, "station_type": "dopravn\u00ed", "zone_type": "m\u011bstsk\u00e1", "city": "", "street": "", "region": "Praha"}}, {"type": "Feature", "geometry": {"type": "Point", "coordinates": [14.467577934265137, 50.122188568115234]}, "properties": {"station_code": "AKOB", "name": "Praha 8-Kobylisy", "active": true, "station_type": "poza\u010fov\u00e1", "zone_type": "p\u0159edm\u011bstsk\u00e1", "city": "", "street": "", "region": "Praha"}}, {"type": "Feature", "geometry": {"type": "Point", "coordinates": [14.384638786315918, 50.126529693603516]}, "properties": {"station_code": "ASUC", "name": "Praha 6-Suchdol", "active": true, "station_type": "poza\u010fov\u00e1", "zone_type": "p\u0159edm\u011bstsk\u00e1", "city": "Praha 6-Suchdol", "street": "AV \u010cR", "region": "Praha"}}, {"type": "Feature", "geometry": {"type": "Point", "coordinates": [14.442691802978516, 50.08148193359375]}, "properties": {"station_code": "ARIE", "name": "Praha 2-Riegrovy sady", "active": true, "station_type": "poza\u010fov\u00e1", "zone_type": "m\u011bstsk\u00e1", "city": "", "street": "", "region": "Praha"}}, {"type": "Feature", "geometry": {"type": "Point", "coordinates": [14.446151733398438, 50.066429138183594]}, "properties": {"station_code": "AVRS", "name": "Praha 10-Vr\u0161ovice", "active": true, "station_type": "dopravn\u00ed", "zone_type": "m\u011bstsk\u00e1", "city": "", "street": "", "region": "Praha"}}, {"type": "Feature", "geometry": {"type": "Point", "coordinates": [14.38011646270752, 50.08438491821289]}, "properties": {"station_code": "ABRE", "name": "Praha 6-B\u0159evnov", "active": true, "station_type": "poza\u010fov\u00e1", "zone_type": "m\u011bstsk\u00e1", "city": "Praha 6", "street": "\u0160likova", "region": "Praha"}}, {"type": "Feature", "geometry": {"type": "Point", "coordinates": [14.517450332641602, 50.03017044067383]}, "properties": {"station_code": "ACHO", "name": "Praha 4-Chodov", "active": true, "station_type": "poza\u010fov\u00e1", "zone_type": "m\u011bstsk\u00e1", "city": "Praha 4", "street": "Vejvanovsk\u00e9ho", "region": "Praha"}}]}
